CCSDS_OMM_VERS = 2.0
CREATION_DATE  = 
ORIGINATOR     = 

OBJECT_NAME    = YOTSUBA-KULOVER
OBJECT_ID      = 1998-067XN
CENTER_NAME    = EARTH
REF_FRAME      = TEME
TIME_SYSTEM    = UTC
MEAN_ELEMENT_THEORY = SGP/SGP4

EPOCH          = 2026-02-23T06:17:32.776224
MEAN_MOTION    = 15.74972518
ECCENTRICITY   = .00057873
INCLINATION    = 51.6227
RA_OF_ASC_NODE = 131.7922
ARG_OF_PERICENTER = 350.7746
MEAN_ANOMALY   = 9.3146

EPHEMERIS_TYPE = 0
CLASSIFICATION_TYPE = U
NORAD_CAT_ID   = 65941
ELEMENT_SET_NO = 999
REV_AT_EPOCH   = 2122
BSTAR          = .10530189E-2
MEAN_MOTION_DOT = .162411E-2
MEAN_MOTION_DDOT = 0

CCSDS_OMM_VERS = 2.0
CREATION_DATE  = 
ORIGINATOR     = 

OBJECT_NAME    = BOTAN
OBJECT_ID      = 1998-067XP
CENTER_NAME    = EARTH
REF_FRAME      = TEME
TIME_SYSTEM    = UTC
MEAN_ELEMENT_THEORY = SGP/SGP4

EPOCH          = 2026-02-23T05:25:59.261376
MEAN_MOTION    = 15.98588961
ECCENTRICITY   = .00099173
INCLINATION    = 51.6124
RA_OF_ASC_NODE = 126.2024
ARG_OF_PERICENTER = 8.1151
MEAN_ANOMALY   = 352.0017

EPHEMERIS_TYPE = 0
CLASSIFICATION_TYPE = U
NORAD_CAT_ID   = 65942
ELEMENT_SET_NO = 999
REV_AT_EPOCH   = 2129
BSTAR          = .16987001E-2
MEAN_MOTION_DOT = .824202E-2
MEAN_MOTION_DDOT = .32124476E-3

CCSDS_OMM_VERS = 2.0
CREATION_DATE  = 
ORIGINATOR     = 

OBJECT_NAME    = E-KAGAKU-1
OBJECT_ID      = 1998-067XQ
CENTER_NAME    = EARTH
REF_FRAME      = TEME
TIME_SYSTEM    = UTC
MEAN_ELEMENT_THEORY = SGP/SGP4

EPOCH          = 2026-02-23T04:49:13.504800
MEAN_MOTION    = 15.74763227
ECCENTRICITY   = .00059991
INCLINATION    = 51.6252
RA_OF_ASC_NODE = 132.1477
ARG_OF_PERICENTER = 0.6457
MEAN_ANOMALY   = 359.4549

EPHEMERIS_TYPE = 0
CLASSIFICATION_TYPE = U
NORAD_CAT_ID   = 65943
ELEMENT_SET_NO = 999
REV_AT_EPOCH   = 2121
BSTAR          = .10204319E-2
MEAN_MOTION_DOT = .155825E-2
MEAN_MOTION_DDOT = 0

CCSDS_OMM_VERS = 2.0
CREATION_DATE  = 
ORIGINATOR     = 

OBJECT_NAME    = HRC MONOBLOCK CAMERA
OBJECT_ID      = 1998-067XR
CENTER_NAME    = EARTH
REF_FRAME      = TEME
TIME_SYSTEM    = UTC
MEAN_ELEMENT_THEORY = SGP/SGP4

EPOCH          = 2026-02-23T11:47:42.290016
MEAN_MOTION    = 15.60614272
ECCENTRICITY   = .0002818
INCLINATION    = 51.6276
RA_OF_ASC_NODE = 137.1008
ARG_OF_PERICENTER = 36.3239
MEAN_ANOMALY   = 323.7945

EPHEMERIS_TYPE = 0
CLASSIFICATION_TYPE = U
NORAD_CAT_ID   = 66052
ELEMENT_SET_NO = 999
REV_AT_EPOCH   = 2017
BSTAR          = .62348E-3
MEAN_MOTION_DOT = .52444E-3
MEAN_MOTION_DDOT = 0

CCSDS_OMM_VERS = 2.0
CREATION_DATE  = 
ORIGINATOR     = 

OBJECT_NAME    = HTV-X1
OBJECT_ID      = 2025-241A
CENTER_NAME    = EARTH
REF_FRAME      = TEME
TIME_SYSTEM    = UTC
MEAN_ELEMENT_THEORY = SGP/SGP4

EPOCH          = 2026-02-23T05:59:51.736704
MEAN_MOTION    = 15.48232437
ECCENTRICITY   = .00084659
INCLINATION    = 51.6318
RA_OF_ASC_NODE = 143.7335
ARG_OF_PERICENTER = 124.8398
MEAN_ANOMALY   = 235.3387

EPHEMERIS_TYPE = 0
CLASSIFICATION_TYPE = U
NORAD_CAT_ID   = 66174
ELEMENT_SET_NO = 999
REV_AT_EPOCH   = 51
BSTAR          = .28253556E-3
MEAN_MOTION_DOT = .14749E-3
MEAN_MOTION_DDOT = 0

CCSDS_OMM_VERS = 2.0
CREATION_DATE  = 
ORIGINATOR     = 

OBJECT_NAME    = SZ-21 MODULE
OBJECT_ID      = 2025-246C
CENTER_NAME    = EARTH
REF_FRAME      = TEME
TIME_SYSTEM    = UTC
MEAN_ELEMENT_THEORY = SGP/SGP4

EPOCH          = 2026-02-23T08:38:33.422784
MEAN_MOTION    = 15.67371956
ECCENTRICITY   = .000156
INCLINATION    = 41.4753
RA_OF_ASC_NODE = 291.4923
ARG_OF_PERICENTER = 291.3455
MEAN_ANOMALY   = 68.7220

EPHEMERIS_TYPE = 0
CLASSIFICATION_TYPE = U
NORAD_CAT_ID   = 66515
ELEMENT_SET_NO = 999
REV_AT_EPOCH   = 1582
BSTAR          = .3419E-3
MEAN_MOTION_DOT = .37859E-3
MEAN_MOTION_DDOT = 0

CCSDS_OMM_VERS = 2.0
CREATION_DATE  = 
ORIGINATOR     = 

OBJECT_NAME    = SHENZHOU-22
OBJECT_ID      = 2025-272A
CENTER_NAME    = EARTH
REF_FRAME      = TEME
TIME_SYSTEM    = UTC
MEAN_ELEMENT_THEORY = SGP/SGP4

EPOCH          = 2026-02-23T02:55:55.792992
MEAN_MOTION    = 15.60017570
ECCENTRICITY   = .0005303
INCLINATION    = 41.4667
RA_OF_ASC_NODE = 296.7550
ARG_OF_PERICENTER = 176.3484
MEAN_ANOMALY   = 183.7394

EPHEMERIS_TYPE = 0
CLASSIFICATION_TYPE = U
NORAD_CAT_ID   = 66645
ELEMENT_SET_NO = 999
REV_AT_EPOCH   = 26764
BSTAR          = .23479833E-3
MEAN_MOTION_DOT = .19262E-3
MEAN_MOTION_DDOT = 0

CCSDS_OMM_VERS = 2.0
CREATION_DATE  = 
ORIGINATOR     = 

OBJECT_NAME    = SOYUZ-MS 28
OBJECT_ID      = 2025-275A
CENTER_NAME    = EARTH
REF_FRAME      = TEME
TIME_SYSTEM    = UTC
MEAN_ELEMENT_THEORY = SGP/SGP4

EPOCH          = 2026-02-23T10:38:42.311328
MEAN_MOTION    = 15.48237969
ECCENTRICITY   = .0008452
INCLINATION    = 51.6318
RA_OF_ASC_NODE = 142.7772
ARG_OF_PERICENTER = 125.3696
MEAN_ANOMALY   = 234.8083

EPHEMERIS_TYPE = 0
CLASSIFICATION_TYPE = U
NORAD_CAT_ID   = 66664
ELEMENT_SET_NO = 999
REV_AT_EPOCH   = 55412
BSTAR          = .27129E-3
MEAN_MOTION_DOT = .14146E-3
MEAN_MOTION_DDOT = 0

CCSDS_OMM_VERS = 2.0
CREATION_DATE  = 
ORIGINATOR     = 

OBJECT_NAME    = DUPLEX
OBJECT_ID      = 1998-067XS
CENTER_NAME    = EARTH
REF_FRAME      = TEME
TIME_SYSTEM    = UTC
MEAN_ELEMENT_THEORY = SGP/SGP4

EPOCH          = 2026-02-23T12:26:12.689952
MEAN_MOTION    = 15.55205642
ECCENTRICITY   = .0001709
INCLINATION    = 51.6289
RA_OF_ASC_NODE = 140.2797
ARG_OF_PERICENTER = 73.5157
MEAN_ANOMALY   = 286.6022

EPHEMERIS_TYPE = 0
CLASSIFICATION_TYPE = U
NORAD_CAT_ID   = 66906
ELEMENT_SET_NO = 999
REV_AT_EPOCH   = 1292
BSTAR          = .52661E-3
MEAN_MOTION_DOT = .35942E-3
MEAN_MOTION_DDOT = 0

CCSDS_OMM_VERS = 2.0
CREATION_DATE  = 
ORIGINATOR     = 

OBJECT_NAME    = ISS OBJECT XT
OBJECT_ID      = 1998-067XT
CENTER_NAME    = EARTH
REF_FRAME      = TEME
TIME_SYSTEM    = UTC
MEAN_ELEMENT_THEORY = SGP/SGP4

EPOCH          = 2026-02-23T05:35:38.417856
MEAN_MOTION    = 15.64968587
ECCENTRICITY   = .0003729
INCLINATION    = 51.6256
RA_OF_ASC_NODE = 139.1200
ARG_OF_PERICENTER = 358.9452
MEAN_ANOMALY   = 1.1535

EPHEMERIS_TYPE = 0
CLASSIFICATION_TYPE = U
NORAD_CAT_ID   = 66907
ELEMENT_SET_NO = 999
REV_AT_EPOCH   = 1291
BSTAR          = .13104E-2
MEAN_MOTION_DOT = .132753E-2
MEAN_MOTION_DDOT = 0

CCSDS_OMM_VERS = 2.0
CREATION_DATE  = 
ORIGINATOR     = 

OBJECT_NAME    = ISS OBJECT XU
OBJECT_ID      = 1998-067XU
CENTER_NAME    = EARTH
REF_FRAME      = TEME
TIME_SYSTEM    = UTC
MEAN_ELEMENT_THEORY = SGP/SGP4

EPOCH          = 2026-02-23T05:34:13.865088
MEAN_MOTION    = 15.65040951
ECCENTRICITY   = .0003771
INCLINATION    = 51.6253
RA_OF_ASC_NODE = 139.1104
ARG_OF_PERICENTER = 3.1807
MEAN_ANOMALY   = 356.9211

EPHEMERIS_TYPE = 0
CLASSIFICATION_TYPE = U
NORAD_CAT_ID   = 66908
ELEMENT_SET_NO = 999
REV_AT_EPOCH   = 1291
BSTAR          = .13437E-2
MEAN_MOTION_DOT = .1366E-2
MEAN_MOTION_DDOT = 0

CCSDS_OMM_VERS = 2.0
CREATION_DATE  = 
ORIGINATOR     = 

OBJECT_NAME    = SILVERSAT
OBJECT_ID      = 1998-067XV
CENTER_NAME    = EARTH
REF_FRAME      = TEME
TIME_SYSTEM    = UTC
MEAN_ELEMENT_THEORY = SGP/SGP4

EPOCH          = 2026-02-23T06:07:25.236480
MEAN_MOTION    = 15.67000186
ECCENTRICITY   = .0004615
INCLINATION    = 51.6249
RA_OF_ASC_NODE = 138.5152
ARG_OF_PERICENTER = 357.9076
MEAN_ANOMALY   = 2.1899

EPHEMERIS_TYPE = 0
CLASSIFICATION_TYPE = U
NORAD_CAT_ID   = 66909
ELEMENT_SET_NO = 999
REV_AT_EPOCH   = 1292
BSTAR          = .143E-2
MEAN_MOTION_DOT = .15777E-2
MEAN_MOTION_DDOT = 0

