YOTSUBA-KULOVER         
1 65941U 98067XN  26054.26218491  .00162411  00000+0  10530-2 0  9990
2 65941  51.6227 131.7922 0005787 350.7746   9.3146 15.74972518 21223
BOTAN                   
1 65942U 98067XP  26054.22638034  .00824202  32124-3  16987-2 0  9997
2 65942  51.6124 126.2024 0009917   8.1151 352.0017 15.98588961 21298
E-KAGAKU-1              
1 65943U 98067XQ  26054.20085075  .00155825  00000+0  10204-2 0  9995
2 65943  51.6252 132.1477 0005999   0.6457 359.4549 15.74763227 21218
HRC MONOBLOCK CAMERA    
1 66052U 98067XR  26054.49146169  .00052444  00000+0  62348-3 0  9990
2 66052  51.6276 137.1008 0002818  36.3239 323.7945 15.60614272 20170
HTV-X1                  
1 66174U 25241A   26054.24990436  .00014749  00000+0  28254-3 0  9990
2 66174  51.6318 143.7335 0008465 124.8398 235.3387 15.48232437   510
SZ-21 MODULE            
1 66515U 25246C   26054.36010906  .00037859  00000+0  34190-3 0  9995
2 66515  41.4753 291.4923 0001560 291.3455  68.7220 15.67371956 15821
SHENZHOU-22             
1 66645U 25272A   26054.12217353  .00019262  00000+0  23480-3 0  9995
2 66645  41.4667 296.7550 0005303 176.3484 183.7394 15.60017570267647
SOYUZ-MS 28             
1 66664U 25275A   26054.44354527  .00014146  00000+0  27129-3 0  9999
2 66664  51.6318 142.7772 0008452 125.3696 234.8083 15.48237969554124
DUPLEX                  
1 66906U 98067XS  26054.51820243  .00035942  00000+0  52661-3 0  9994
2 66906  51.6289 140.2797 0001709  73.5157 286.6022 15.55205642 12920
ISS OBJECT XT           
1 66907U 98067XT  26054.23308354  .00132753  00000+0  13104-2 0  9994
2 66907  51.6256 139.1200 0003729 358.9452   1.1535 15.64968587 12915
ISS OBJECT XU           
1 66908U 98067XU  26054.23210492  .00136600  00000+0  13437-2 0  9994
2 66908  51.6253 139.1104 0003771   3.1807 356.9211 15.65040951 12915
SILVERSAT               
1 66909U 98067XV  26054.25515320  .00157770  00000+0  14300-2 0  9996
2 66909  51.6249 138.5152 0004615 357.9076   2.1899 15.67000186 12924
